#aV2016  5  3  0  0  0.00000000     288 DD+AD WGS84 FIT  NGA
## 1895 172800.00000000   300.00000000 57511 0.0000000000000
+   31     1  2  3  5  6  7  8  9 10 11 12 13 14 15 16 17 18
+         19 20 21 22 23 24 25 26 27 28 29 30 31 32  0  0  0
+          0  0  0  0  0  0  0  0  0  0  0  0  0  0  0  0  0
+          0  0  0  0  0  0  0  0  0  0  0  0  0  0  0  0  0
+          0  0  0  0  0  0  0  0  0  0  0  0  0  0  0  0  0
++         2  2  2  2  2  2  2  2  2  2  2  2  2  2  2  2  2
++         2  2  2  2  2  2  2  2  2  2  2  2  2  2  0  0  0
++         0  0  0  0  0  0  0  0  0  0  0  0  0  0  0  0  0
++         0  0  0  0  0  0  0  0  0  0  0  0  0  0  0  0  0
++         0  0  0  0  0  0  0  0  0  0  0  0  0  0  0  0  0
%c cc cc ccc ccc cccc cccc cccc cccc ccccc ccccc ccccc ccccc
%c cc cc ccc ccc cccc cccc cccc cccc ccccc ccccc ccccc ccccc
%f  0.0000000  0.000000000  0.00000000000  0.000000000000000
%f  0.0000000  0.000000000  0.00000000000  0.000000000000000
%i    0    0    0    0      0      0      0      0         0
%i    0    0    0    0      0      0      0      0         0
/*      NGA, ST. LOUIS,MO.                                  
/*   EPHEMERIS COMPUTED FROM 2 DAYS OF DATA                 
/*   EPOCHA v2.4 SMOOTHER                                   
/*   G1762 IERS2010 SATAF SATAPC                            
*  2016  5  3 10 25  0.00000000
P  1 -13620.534240  16427.338055  15587.209867     19.205417                    
V  1   1149.989624 -20092.329184  22298.649917      0.011723                    
P  2  14521.180656   6478.758901 -20885.693699    593.913813                    
V  2  -3636.664619  27316.109662   5432.285259     -0.020600                    
P  3 -21743.480319  13601.348898  -6915.090099    -53.900257                    
V  3  -9176.818105    636.298771  30071.493671     -0.039093                    
P  5  24210.136574  -1011.380803 -11172.070282   -123.904356                    
V  5 -12061.014354   7663.128348 -26793.518266      0.031056                    
P  6   7361.725583  20653.897694 -14973.923595    184.747567                    
V  6  -4847.047886  18513.481457  23130.897844      0.055554                    
P  7  -5647.775399  25676.146268  -1470.347677    456.731733                    
V  7  -2581.243480  -2546.978370 -32072.458520     -0.021524                    
P  8 -20268.282605   -801.596674  17218.035234    -33.713327                    
V  8 -16002.208799 -14810.299362 -19550.697397     -0.014296                    
P  9  -1955.745480  16874.249271 -20428.763905    121.821953                    
V  9 -20943.729725 -15316.517620 -10670.980206      0.073664                    
P 10  -5928.632619 -14054.920591  21762.370954    -13.279802                    
V 10  25691.139396 -10063.203238    436.872917     -0.092850                    
P 11 -13307.807618  11519.464178  19329.922821   -645.200749                    
V 11  -7192.353982 -25083.558924   9762.545805     -0.022404                    
P 12  23841.848737 -10697.054931  -4167.674609    378.435771                    
V 12   5514.672284    303.410448  31966.239404      0.012827                    
P 13  21357.056859   9739.030252  12210.854019    -15.223786                    
V 13   9533.427665  12690.939792 -26598.355157     -0.026681                    
P 14 -14689.730610 -20993.382967   7570.671632    -11.761566                    
V 14   8339.974654   4593.669714  29776.723237     -0.021042                    
P 15  18989.817842  -3195.460569  18306.053895   -309.221019                    
V 15  18116.271952  15043.607158 -15711.990882     -0.016994                    
P 16 -23952.625276   -838.874524 -11969.485672    -20.215131                    
V 16  13827.140365  -5562.285774 -27134.645528      0.026563                    
P 17  12392.945014  20974.098297  11130.727856   -203.546247                    
V 17 -11343.068641  -7624.379900  27643.026250     -0.002236                    
P 18   6587.503591 -18108.881043  18714.986052    511.424745                    
V 18  21831.466186  -7139.483894 -15295.166789      0.042001                    
P 19  18553.543776  18690.507756    663.736020   -525.707737                    
V 19  -2733.377544   1177.753002  32270.659024     -0.000089                    
P 20  22949.861183 -13175.218749   2404.626066    409.861805                    
V 20   4600.673696   2044.006396 -30741.489051      0.023778                    
P 21   1630.494963 -26319.843436   2345.042197   -521.342590                    
V 21   4015.649123  -1623.389457 -31172.550221     -0.013758                    
P 22 -25156.223319   8375.606119   2759.524981    350.289814                    
V 22   1477.121406  -4796.549054  30546.803450     -0.078822                    
P 23 -12528.410881   9559.876883 -21233.572821   -172.124991                    
V 23 -21210.087461 -17359.815645   4219.761131     -0.016917                    
P 24  14499.526779 -13367.889060  17639.717065    -16.476150                    
V 24  -1020.207633  22685.062483  18161.743151     -0.005908                    
P 25  15479.115630 -16210.891005 -14219.186198   -164.436710                    
V 25  17345.277717  -4732.452868  24677.854973     -0.070754                    
P 26 -17066.184375  -7500.664524 -18943.792568   -351.611223                    
V 26  21844.751532 -10097.392774 -15637.214849     -0.128730                    
P 27 -22832.716661 -10442.442278   8890.842464     88.537694                    
V 27  -7467.908119  -8707.894008 -29143.212854      0.039784                    
P 28   3520.878366  14460.518527  22626.296425    520.393788                    
V 28 -25988.706197   7779.123488   -997.472248      0.025900                    
P 29   5588.240422 -14510.072255 -21527.966152    657.144886                    
V 29  20602.835777  17924.228024  -6683.778528      0.001373                    
P 30    386.888551  25163.726803   8326.871792    122.071140                    
V 30  -5207.734869   9718.247070 -29183.421862      0.032638                    
P 31  -8421.918818 -18247.325716 -17072.538927    270.823969                    
V 31   5857.030644 -21276.841557  20086.027591     -0.018550                    
P 32 -15053.130896 -19975.129269   8955.599131     -0.889396                    
V 32  10500.243820   5050.381022  28923.224140     -0.047897                    
EOF
